[{"OBJECT_NAME":"STARLINK-31848","OBJECT_ID":"2024-093C","EPOCH":"2026-03-09T09:57:19.658304","MEAN_MOTION":15.27561249,"ECCENTRICITY":0.00010998,"INCLINATION":43.0002,"RA_OF_ASC_NODE":206.9663,"ARG_OF_PERICENTER":289.2615,"MEAN_ANOMALY":70.8118,"EPHEMERIS_TYPE":0,"CLASSIFICATION_TYPE":"U","NORAD_CAT_ID":59784,"ELEMENT_SET_NO":999,"REV_AT_EPOCH":10269,"BSTAR":-6.495865e-6,"MEAN_MOTION_DOT":-4.41e-6,"MEAN_MOTION_DDOT":0},{"OBJECT_NAME":"OBJECT E","OBJECT_ID":"2024-174E","EPOCH":"2026-03-09T23:40:24.424320","MEAN_MOTION":15.26241811,"ECCENTRICITY":0.00122518,"INCLINATION":97.4515,"RA_OF_ASC_NODE":80.1669,"ARG_OF_PERICENTER":217.7524,"MEAN_ANOMALY":142.2856,"EPHEMERIS_TYPE":0,"CLASSIFICATION_TYPE":"U","NORAD_CAT_ID":61242,"ELEMENT_SET_NO":999,"REV_AT_EPOCH":8070,"BSTAR":0.00031155901,"MEAN_MOTION_DOT":8.013e-5,"MEAN_MOTION_DDOT":0}]
